OBJECT_NAME,OBJECT_ID,EPOCH,MEAN_MOTION,ECCENTRICITY,INCLINATION,RA_OF_ASC_NODE,ARG_OF_PERICENTER,MEAN_ANOMALY,EPHEMERIS_TYPE,CLASSIFICATION_TYPE,NORAD_CAT_ID,ELEMENT_SET_NO,REV_AT_EPOCH,BSTAR,MEAN_MOTION_DOT,MEAN_MOTION_DDOT
GEOSCAN 3 (RS92S3),2025-155T,2026-07-23T06:49:21.864576,15.36530012,.00081088,97.4554,174.6172,66.8276,293.3821,0,U,64893,999,8639,.52556923E-3,.18698E-3,0
INNOSAT 3 (RS92S0),2025-155U,2026-07-23T06:08:14.090496,15.46316125,.00076496,97.4499,176.6875,73.0712,287.1375,0,U,64894,999,8653,.87402915E-3,.43231E-3,0
KNACKSAT-2,1998-067XZ,2026-07-23T06:03:19.332576,15.63087127,.00074539,51.6273,112.6377,354.3723,5.7186,0,U,67683,999,2591,.59135592E-3,.5483E-3,0
