GEOSCAN 3 (RS92S3)      
1 64893U 25155T   26204.28428084  .00018698  00000+0  52557-3 0  9996
2 64893  97.4554 174.6172 0008108  66.8276 293.3821 15.36530012 86396
INNOSAT 3 (RS92S0)      
1 64894U 25155U   26204.25571864  .00043231  00000+0  87403-3 0  9998
2 64894  97.4499 176.6875 0007649  73.0712 287.1375 15.46316125 86530
KNACKSAT-2              
1 67683U 98067XZ  26204.25230709  .00054830  00000+0  59136-3 0  9998
2 67683  51.6273 112.6377 0007453 354.3723   5.7186 15.63087127 25913
